{"type": "FeatureCollection", "features": [ {"type": "Feature", "properties": {"norad_id": 31630, "name": "FENGYUN 1C DEB", "group": "fengyun-1c-debris", "lat": -79.68848166260781, "lon": -153.54835246754143, "alt_km": 528.9159271413819, "timestamp": "2025-12-13T10:41:26.049695+00:00", "meta": {"OBJECT_NAME": "FENGYUN 1C DEB", "OBJECT_ID": "1999-025CAL", "EPOCH": "2025-12-11T04:50:43.743552", "MEAN_MOTION": 15.06197917, "ECCENTRICITY": 0.01656755, "INCLINATION": 98.0916, "RA_OF_ASC_NODE": 152.655, "ARG_OF_PERICENTER": 1.8222, "MEAN_ANOMALY": 358.3571, "EPHEMERIS_TYPE": 0, "CLASSIFICATION_TYPE": "U", "NORAD_CAT_ID": 31630, "ELEMENT_SET_NO": 999, "REV_AT_EPOCH": 98567, "BSTAR": 0.0012017161, "MEAN_MOTION_DOT": 0.00024062, "MEAN_MOTION_DDOT": 0}, "tle": {"line1": "1 31630U 99025CAL 25345.20189518  .00024062  00000+0  12017-2 0  9997", "line2": "2 31630  98.0916 152.6550 0165675   1.8222 358.3571 15.06197917985670"}}, "geometry": {"type": "Point", "coordinates": [-153.54835246754143, -79.68848166260781]}}, {"type": "Feature", "properties": {"norad_id": 31631, "name": "FENGYUN 1C DEB", "group": "fengyun-1c-debris", "lat": -14.436481683757249, "lon": 75.9336635792851, "alt_km": 692.2693819333854, "timestamp": "2025-12-13T10:41:26.049705+00:00", "meta": {"OBJECT_NAME": "FENGYUN 1C DEB", "OBJECT_ID": "1999-025CAM", "EPOCH": "2025-12-11T23:32:01.433760", "MEAN_MOTION": 14.71340661, "ECCENTRICITY": 0.006193, "INCLINATION": 99.3504, "RA_OF_ASC_NODE": 256.6842, "ARG_OF_PERICENTER": 335.624, "MEAN_ANOMALY": 24.2036, "EPHEMERIS_TYPE": 0, "CLASSIFICATION_TYPE": "U", "NORAD_CAT_ID": 31631, "ELEMENT_SET_NO": 999, "REV_AT_EPOCH": 63961, "BSTAR": 0.010543, "MEAN_MOTION_DOT": 0.00067735, "MEAN_MOTION_DDOT": 0}, "tle": {"line1": "1 31631U 99025CAM 25345.98057215  .00067735  00000+0  10543-1 0  9996", "line2": "2 31631  99.3504 256.6842 0061930 335.6240  24.2036 14.71340661639616"}}, "geometry": {"type": "Point", "coordinates": [75.9336635792851, -14.436481683757249]}}, {"type": "Feature", "properties": {"norad_id": 31633, "name": "FENGYUN 1C DEB", "group": "fengyun-1c-debris", "lat": -66.95502482141582, "lon": 160.50529240776385, "alt_km": 868.1055676279921, "timestamp": "2025-12-13T10:41:26.049717+00:00", "meta": {"OBJECT_NAME": "FENGYUN 1C DEB", "OBJECT_ID": "1999-025CAP", "EPOCH": "2025-11-15T20:43:47.485920", "MEAN_MOTION": 14.06334417, "ECCENTRICITY": 0.00656916, "INCLINATION": 98.7152, "RA_OF_ASC_NODE": 335.0833, "ARG_OF_PERICENTER": 248.7649, "MEAN_ANOMALY": 110.6494, "EPHEMERIS_TYPE": 0, "CLASSIFICATION_TYPE": "U", "NORAD_CAT_ID": 31633, "ELEMENT_SET_NO": 999, "REV_AT_EPOCH": 56706, "BSTAR": 0.0011592605, "MEAN_MOTION_DOT": 1.907e-05, "MEAN_MOTION_DDOT": 0}, "tle": {"line1": "1 31633U 99025CAP 25319.86374405  .00001907  00000+0  11593-2 0  9995", "line2": "2 31633  98.7152 335.0833 0065691 248.7649 110.6494 14.06334417567064"}}, "geometry": {"type": "Point", "coordinates": [160.50529240776385, -66.95502482141582]}}, {"type": "Feature", "properties": {"norad_id": 31634, "name": "FENGYUN 1C DEB", "group": "fengyun-1c-debris", "lat": 67.88137482119069, "lon": -122.08843003446822, "alt_km": 858.4971006619508, "timestamp": "2025-12-13T10:41:26.049728+00:00", "meta": {"OBJECT_NAME": "FENGYUN 1C DEB", "OBJECT_ID": "1999-025CAQ", "EPOCH": "2025-12-12T10:03:29.440800", "MEAN_MOTION": 13.94670672, "ECCENTRICITY": 0.00920202, "INCLINATION": 99.3673, "RA_OF_ASC_NODE": 32.9086, "ARG_OF_PERICENTER": 158.6049, "MEAN_ANOMALY": 201.8997, "EPHEMERIS_TYPE": 0, "CLASSIFICATION_TYPE": "U", "NORAD_CAT_ID": 31634, "ELEMENT_SET_NO": 999, "REV_AT_EPOCH": 56519, "BSTAR": 0.00061392804, "MEAN_MOTION_DOT": 8.05e-06, "MEAN_MOTION_DDOT": 0}, "tle": {"line1": "1 31634U 99025CAQ 25346.41909075  .00000805  00000+0  61393-3 0  9994", "line2": "2 31634  99.3673  32.9086 0092020 158.6049 201.8997 13.94670672565197"}}, "geometry": {"type": "Point", "coordinates": [-122.08843003446822, 67.88137482119069]}}, {"type": "Feature", "properties": {"norad_id": 31639, "name": "FENGYUN 1C DEB", "group": "fengyun-1c-debris", "lat": -39.27484001584628, "lon": -59.434232987011264, "alt_km": 1070.2619499661068, "timestamp": "2025-12-13T10:41:26.049739+00:00", "meta": {"OBJECT_NAME": "FENGYUN 1C DEB", "OBJECT_ID": "1999-025CAV", "EPOCH": "2025-12-11T14:41:56.034240", "MEAN_MOTION": 13.85162682, "ECCENTRICITY": 0.0161634, "INCLINATION": 98.7431, "RA_OF_ASC_NODE": 291.6268, "ARG_OF_PERICENTER": 148.2496, "MEAN_ANOMALY": 36.5517, "EPHEMERIS_TYPE": 0, "CLASSIFICATION_TYPE": "U", "NORAD_CAT_ID": 31639, "ELEMENT_SET_NO": 999, "REV_AT_EPOCH": 93672, "BSTAR": 0.0001719943, "MEAN_MOTION_DOT": 1.77e-06, "MEAN_MOTION_DDOT": 0}, "tle": {"line1": "1 31639U 99025CAV 25345.61245410  .00000177  00000+0  17199-3 0  9993", "line2": "2 31639  98.7431 291.6268 0161634 148.2496  36.5517 13.85162682936721"}}, "geometry": {"type": "Point", "coordinates": [-59.434232987011264, -39.27484001584628]}}, {"type": "Feature", "properties": {"norad_id": 31642, "name": "FENGYUN 1C DEB", "group": "fengyun-1c-debris", "lat": -79.8282973032952, "lon": -166.8757404172353, "alt_km": 703.6992493628295, "timestamp": "2025-12-13T10:41:26.049749+00:00", "meta": {"OBJECT_NAME": "FENGYUN 1C DEB", "OBJECT_ID": "1999-025CAY", "EPOCH": "2025-12-12T23:24:13.929408", "MEAN_MOTION": 14.33402382, "ECCENTRICITY": 0.01191161, "INCLINATION": 98.5045, "RA_OF_ASC_NODE": 69.1698, "ARG_OF_PERICENTER": 255.7395, "MEAN_ANOMALY": 103.0537, "EPHEMERIS_TYPE": 0, "CLASSIFICATION_TYPE": "U", "NORAD_CAT_ID": 31642, "ELEMENT_SET_NO": 999, "REV_AT_EPOCH": 97022, "BSTAR": 0.00056194024, "MEAN_MOTION_DOT": 1.632e-05, "MEAN_MOTION_DDOT": 0}, "tle": {"line1": "1 31642U 99025CAY 25346.97516122  .00001632  00000+0  56194-3 0  9993", "line2": "2 31642  98.5045  69.1698 0119116 255.7395 103.0537 14.33402382970222"}}, "geometry": {"type": "Point", "coordinates": [-166.8757404172353, -79.8282973032952]}}, {"type": "Feature", "properties": {"norad_id": 31644, "name": "FENGYUN 1C DEB", "group": "fengyun-1c-debris", "lat": -64.52836515998402, "lon": -103.984220606954, "alt_km": 716.1244008866861, "timestamp": "2025-12-13T10:41:26.049761+00:00", "meta": {"OBJECT_NAME": "FENGYUN 1C DEB", "OBJECT_ID": "1999-025CBA", "EPOCH": "2025-12-10T22:32:03.920064", "MEAN_MOTION": 14.67869314, "ECCENTRICITY": 0.0154179, "INCLINATION": 98.6705, "RA_OF_ASC_NODE": 234.6786, "ARG_OF_PERICENTER": 188.798, "MEAN_ANOMALY": 186.0737, "EPHEMERIS_TYPE": 0, "CLASSIFICATION_TYPE": "U", "NORAD_CAT_ID": 31644, "ELEMENT_SET_NO": 999, "REV_AT_EPOCH": 71018, "BSTAR": 0.001296, "MEAN_MOTION_DOT": 8.812e-05, "MEAN_MOTION_DDOT": 0}, "tle": {"line1": "1 31644U 99025CBA 25344.93893426  .00008812  00000+0  12960-2 0  9993", "line2": "2 31644  98.6705 234.6786 0154179 188.7980 186.0737 14.67869314710187"}}, "geometry": {"type": "Point", "coordinates": [-103.984220606954, -64.52836515998402]}}, {"type": "Feature", "properties": {"norad_id": 31646, "name": "FENGYUN 1C DEB", "group": "fengyun-1c-debris", "lat": -29.11532922854244, "lon": 15.322656204890437, "alt_km": 862.4845160905825, "timestamp": "2025-12-13T10:41:26.049771+00:00", "meta": {"OBJECT_NAME": "FENGYUN 1C DEB", "OBJECT_ID": "1999-025CBC", "EPOCH": "2025-12-12T07:39:38.155968", "MEAN_MOTION": 14.14133208, "ECCENTRICITY": 0.00330761, "INCLINATION": 98.6901, "RA_OF_ASC_NODE": 9.3411, "ARG_OF_PERICENTER": 215.1593, "MEAN_ANOMALY": 144.7397, "EPHEMERIS_TYPE": 0, "CLASSIFICATION_TYPE": "U", "NORAD_CAT_ID": 31646, "ELEMENT_SET_NO": 999, "REV_AT_EPOCH": 63185, "BSTAR": 0.0007024204, "MEAN_MOTION_DOT": 1.302e-05, "MEAN_MOTION_DDOT": 0}, "tle": {"line1": "1 31646U 99025CBC 25346.31919162  .00001302  00000+0  70242-3 0  9990", "line2": "2 31646  98.6901   9.3411 0033076 215.1593 144.7397 14.14133208631853"}}, "geometry": {"type": "Point", "coordinates": [15.322656204890437, -29.11532922854244]}}, {"type": "Feature", "properties": {"norad_id": 31655, "name": "FENGYUN 1C DEB", "group": "fengyun-1c-debris", "lat": 12.640990077950644, "lon": -68.79706750552248, "alt_km": 1135.7519200308298, "timestamp": "2025-12-13T10:41:26.049784+00:00", "meta": {"OBJECT_NAME": "FENGYUN 1C DEB", "OBJECT_ID": "1999-025CBM", "EPOCH": "2025-12-08T02:11:00.557952", "MEAN_MOTION": 13.63822611, "ECCENTRICITY": 0.02885921, "INCLINATION": 99.2861, "RA_OF_ASC_NODE": 288.1866, "ARG_OF_PERICENTER": 150.074, "MEAN_ANOMALY": 229.9547, "EPHEMERIS_TYPE": 0, "CLASSIFICATION_TYPE": "U", "NORAD_CAT_ID": 31655, "ELEMENT_SET_NO": 999, "REV_AT_EPOCH": 59656, "BSTAR": 0.0034168292, "MEAN_MOTION_DOT": 3.556e-05, "MEAN_MOTION_DDOT": 0}, "tle": {"line1": "1 31655U 99025CBM 25342.09097868  .00003556  00000+0  34168-2 0  9990", "line2": "2 31655  99.2861 288.1866 0288592 150.0740 229.9547 13.63822611596569"}}, "geometry": {"type": "Point", "coordinates": [-68.79706750552248, 12.640990077950644]}}, {"type": "Feature", "properties": {"norad_id": 31656, "name": "FENGYUN 1C DEB", "group": "fengyun-1c-debris", "lat": -7.830412461613149, "lon": -22.43374583604973, "alt_km": 730.6305489569049, "timestamp": "2025-12-13T10:41:26.049794+00:00", "meta": {"OBJECT_NAME": "FENGYUN 1C DEB", "OBJECT_ID": "1999-025CBN", "EPOCH": "2025-12-11T22:28:26.947200", "MEAN_MOTION": 14.46995865, "ECCENTRICITY": 0.0022796, "INCLINATION": 99.1932, "RA_OF_ASC_NODE": 334.653, "ARG_OF_PERICENTER": 54.6728, "MEAN_ANOMALY": 1.3556, "EPHEMERIS_TYPE": 0, "CLASSIFICATION_TYPE": "U", "NORAD_CAT_ID": 31656, "ELEMENT_SET_NO": 999, "REV_AT_EPOCH": 96444, "BSTAR": 0.0034814, "MEAN_MOTION_DOT": 0.00012674, "MEAN_MOTION_DDOT": 0}, "tle": {"line1": "1 31656U 99025CBN 25345.93642300  .00012674  00000+0  34814-2 0  9993", "line2": "2 31656  99.1932 334.6530 0022796  54.6728   1.3556 14.46995865964442"}}, "geometry": {"type": "Point", "coordinates": [-22.43374583604973, -7.830412461613149]}}]}